H1 CPF 01  gfz 2022 05 10 00  6301 terrasarx 
H2 0702601  6201 31698    2022 05 10 00 59 42 2022 05 15 00 00 42   120 1 1  0 0 0
H9
10 0 59712  25902.000000  0    3822296.400  -1950119.560  -5396310.322
10 0 59712  26022.000000  0    3067554.568  -1812525.617  -5902639.436
10 0 59712  26142.000000  0    2262399.455  -1629838.144  -6305840.127
10 0 59712  26262.000000  0    1421598.167  -1404496.039  -6598953.386
10 0 59712  26382.000000  0     560457.111  -1139930.138  -6776930.276
10 0 59712  26502.000000  0    -305453.097   -840511.337  -6836709.370
10 0 59712  26622.000000  0   -1160573.258   -511479.228  -6777263.181
10 0 59712  26742.000000  0   -1989628.741   -158852.468  -6599614.204
10 0 59712  26862.000000  0   -2777896.263    210678.643  -6306818.187
10 0 59712  26982.000000  0   -3511459.316    589874.782  -5903917.056
10 0 59712  27102.000000  0   -4177451.682    971084.881  -5397862.235
10 0 59712  27222.000000  0   -4764284.840   1346395.229  -4797405.635
10 0 59712  27342.000000  0   -5261855.413   1707789.747  -4112960.925
10 0 59712  27462.000000  0   -5661727.667   2047317.915  -3356432.316
10 0 59712  27582.000000  0   -5957286.728   2357265.391  -2541015.488
10 0 59712  27702.000000  0   -6143859.849   2630324.904  -1680972.111
10 0 59712  27822.000000  0   -6218801.285   2859763.416   -791380.996
10 0 59712  27942.000000  0   -6181538.107   3039581.061    112129.711
10 0 59712  28062.000000  0   -6033574.206   3164657.026   1013664.471
10 0 59712  28182.000000  0   -5778451.127   3230878.908   1897348.726
10 0 59712  28302.000000  0   -5421667.817   3235251.864   2747617.478
10 0 59712  28422.000000  0   -4970561.487   3175984.903   3549497.346
10 0 59712  28542.000000  0   -4434152.359   3052551.550   4288877.222
10 0 59712  28662.000000  0   -3822956.112   2865723.497   4952759.746
10 0 59712  28782.000000  0   -3148770.903   2617577.806   5529489.635
10 0 59712  28902.000000  0   -2424442.532   2311477.777   6008956.938
10 0 59712  29022.000000  0   -1663612.823   1952026.772   6382769.809
10 0 59712  29142.000000  0    -880457.419   1544996.893   6644394.940
10 0 59712  29262.000000  0     -89420.016   1097234.174   6789264.223
10 0 59712  29382.000000  0     695053.439    616542.068   6814849.511
10 0 59712  29502.000000  0    1458777.659    111545.463   6720703.685
10 0 59712  29622.000000  0    2188083.172   -408463.198   6508468.237
10 0 59712  29742.000000  0    2870060.374   -933694.342   6181847.398
10 0 59712  29862.000000  0    3492789.467  -1454044.384   5746548.288
10 0 59712  29982.000000  0    4045552.573  -1959289.776   5210186.781
10 0 59712  30102.000000  0    4519022.394  -2439287.777   4582159.594
10 0 59712  30222.000000  0    4905425.970  -2884180.944   3873486.141
10 0 59712  30342.000000  0    5198680.535  -3284601.745   3096618.894
10 0 59712  30462.000000  0    5394496.314  -3631871.038   2265224.033
10 0 59712  30582.000000  0    5490442.736  -3918186.314   1393938.540
10 0 59712  30702.000000  0    5485978.240  -4136796.012    498107.646
10 0 59712  30822.000000  0    5382441.931  -4282153.507   -406492.687
10 0 59712  30942.000000  0    5183007.285  -4350048.546  -1303942.455
10 0 59712  31062.000000  0    4892598.307  -4337710.860  -2178466.829
10 0 59712  31182.000000  0    4517770.690  -4243884.235  -3014720.917
10 0 59712  31302.000000  0    4066561.872  -4068869.735  -3798063.684
10 0 59712  31422.000000  0    3548313.800  -3814536.691  -4514815.685
10 0 59712  31542.000000  0    2973473.786  -3484302.629  -5152495.271
10 0 59712  31662.000000  0    2353378.425  -3083082.817  -5700029.282
10 0 59712  31782.000000  0    1700027.096  -2617212.215  -6147934.803
10 0 59712  31902.000000  0    1025849.407  -2094342.145  -6488473.710
10 0 59712  32022.000000  0     343468.958  -1523310.888  -6715776.606
10 0 59712  32142.000000  0    -334530.216   -913992.773  -6825933.133
10 0 59712  32262.000000  0    -995830.394   -277129.120  -6817050.848
10 0 59712  32382.000000  0   -1628598.497    375856.993  -6689283.911
10 0 59712  32502.000000  0   -2221693.065   1033060.387  -6444830.056
10 0 59712  32622.000000  0   -2764855.888   1682305.334  -6087896.900
10 0 59712  32742.000000  0   -3248886.994   2311365.696  -5624637.679
10 0 59712  32862.000000  0   -3665801.504   2908192.038  -5063056.878
10 0 59712  32982.000000  0   -4008965.836   3461141.852  -4412883.418
10 0 59712  33102.000000  0   -4273208.685   3959207.785  -3685411.711
10 0 59712  33222.000000  0   -4454903.660   4392239.628  -2893314.333
10 0 59712  33342.000000  0   -4552024.018   4751155.726  -2050427.796
10 0 59712  33462.000000  0   -4564166.447   5028137.668  -1171513.598
10 0 59712  33582.000000  0   -4492543.670   5216804.998   -271998.610
10 0 59712  33702.000000  0   -4339942.667   5312363.210    632302.023
10 0 59712  33822.000000  0   -4110651.356   5311720.992   1525469.748
10 0 59712  33942.000000  0   -3810354.659   5213573.838   2391773.608
10 0 59712  34062.000000  0   -3446000.945   5018449.610   3215956.706
10 0 59712  34182.000000  0   -3025643.640   4728717.332   3983511.399
10 0 59712  34302.000000  0   -2558263.764   4348559.639   4680938.911
10 0 59712  34422.000000  0   -2053576.381   3883908.508   5295988.815
10 0 59712  34542.000000  0   -1521826.423   3342346.155   5817873.311
10 0 59712  34662.000000  0    -973578.220   2732974.153   6237452.432
10 0 59712  34782.000000  0    -419504.432   2066253.727   6547387.552
10 0 59712  34902.000000  0     129820.941   1353822.606   6742263.200
10 0 59712  35022.000000  0     664124.041    608289.196   6818676.726
10 0 59712  35142.000000  0    1173622.429   -156990.795   6775293.009
10 0 59712  35262.000000  0    1649203.078   -928152.535   6612867.166
10 0 59712  35382.000000  0    2082585.070  -1691072.828   6334232.516
10 0 59712  35502.000000  0    2466464.295  -2431628.025   5944255.108
10 0 59712  35622.000000  0    2794638.643  -3135956.726   5449754.227
10 0 59712  35742.000000  0    3062110.386  -3790721.664   4859388.646
10 0 59712  35862.000000  0    3265164.377  -4383366.168   4183510.984
10 0 59712  35982.000000  0    3401421.303  -4902361.418   3433990.408
10 0 59712  36102.000000  0    3469863.133  -5337437.258   2624005.587
10 0 59712  36222.000000  0    3470830.901  -5679792.397   1767811.879
10 0 59712  36342.000000  0    3405993.775  -5922278.188    880486.368
10 0 59712  36462.000000  0    3278290.801  -6059549.984    -22343.729
10 0 59712  36582.000000  0    3091847.625  -6088185.528   -924783.337
10 0 59712  36702.000000  0    2851867.353  -6006763.948  -1810960.086
10 0 59712  36822.000000  0    2564499.674  -5815903.177  -2665310.783
10 0 59712  36942.000000  0    2236693.100  -5518257.594  -3472861.409
10 0 59712  37062.000000  0    1876031.950  -5118474.021  -4219493.855
10 0 59712  37182.000000  0    1490563.729  -4623107.434  -4892191.062
10 0 59712  37302.000000  0    1088623.061  -4040502.293  -5479258.188
10 0 59712  37422.000000  0     678654.915  -3380642.148  -5970517.984
10 0 59712  37542.000000  0     269040.388  -2654970.568  -6357476.702
10 0 59712  37662.000000  0    -132070.963  -1876187.977  -6633459.461
10 0 59712  37782.000000  0    -516918.943  -1058028.113  -6793714.684
10 0 59712  37902.000000  0    -878278.026   -215017.711  -6835487.596
10 0 59712  38022.000000  0   -1209589.043    637776.989  -6758061.580
10 0 59712  38142.000000  0   -1505075.436   1485012.414  -6562768.519
10 0 59712  38262.000000  0   -1759841.559   2311336.871  -6252968.095
10 0 59712  38382.000000  0   -1969952.805   3101662.249  -5833997.452
10 0 59712  38502.000000  0   -2132496.689   3841436.856  -5313088.998
10 0 59712  38622.000000  0   -2245623.043   4516913.253  -4699257.091
10 0 59712  38742.000000  0   -2308563.545   5115408.015  -4003153.002
10 0 59712  38862.000000  0   -2321628.644   5625546.192  -3236888.590
10 0 59712  38982.000000  0   -2286181.608   6037485.385  -2413833.169
10 0 59712  39102.000000  0   -2204590.688   6343116.747  -1548384.992
10 0 59712  39222.000000  0   -2080160.155   6536234.665   -655718.788
10 0 59712  39342.000000  0   -1917041.283   6612671.357    248482.138
10 0 59712  39462.000000  0   -1720125.331   6570395.756   1148307.971
10 0 59712  39582.000000  0   -1494919.858   6409566.108   2027914.373
10 0 59712  39702.000000  0   -1247411.774   6132535.804   2871810.746
10 0 59712  39822.000000  0    -983922.276   5743816.286   3665139.647
10 0 59712  39942.000000  0    -710957.319   5249998.677   4393943.400
10 0 59712  40062.000000  0    -435056.593   4659633.883   5045414.804
10 0 59712  40182.000000  0    -162642.972   3983072.042   5608121.138
10 0 59712  40302.000000  0     100120.376   3232273.514   6072200.663
10 0 59712  40422.000000  0     347463.721   2420588.848   6429531.621
10 0 59712  40542.000000  0     574133.010   1562515.635   6673867.808
10 0 59712  40662.000000  0     775498.209    673435.731   6800942.085
10 0 59712  40782.000000  0     947645.504   -230661.437   6808535.235
10 0 59712  40902.000000  0    1087452.250  -1133465.067   6696513.176
10 0 59712  41022.000000  0    1192643.466  -2018637.043   6466829.817
10 0 59712  41142.000000  0    1261828.988  -2870107.355   6123495.684
10 0 59712  41262.000000  0    1294520.514  -3672367.771   5672512.097
10 0 59712  41382.000000  0    1291127.961  -4410756.701   5121770.363
10 0 59712  41502.000000  0    1252936.943  -5071730.363   4480919.809
10 0 59712  41622.000000  0    1182066.561  -5643118.854   3761205.520
10 0 59712  41742.000000  0    1081408.255  -6114360.713   2975273.804
10 0 59712  41862.000000  0     954546.867  -6476707.341   2136949.649
10 0 59712  41982.000000  0     805664.693  -6723394.690   1260991.838
10 0 59712  42102.000000  0     639432.109  -6849777.931    362828.637
10 0 59712  42222.000000  0     460886.620  -6853425.760   -541722.454
10 0 59712  42342.000000  0     275302.663  -6734167.010  -1436744.289
99
